{"fetched_at":"2026-07-17T06:38:26.771Z","source":"https://celestrak.org/NORAD/elements/gp.php?NAME=NUSAT&FORMAT=JSON","constellation":"satellogic","records":[{"OBJECT_NAME":"NUSAT-26 (M SOMERVILLE)","OBJECT_ID":"2022-033AD","EPOCH":"2026-07-16T19:38:42.618912","CLASSIFICATION_TYPE":"U","MEAN_MOTION":15.43281411,"ECCENTRICITY":0.000711,"INCLINATION":97.2338,"RA_OF_ASC_NODE":276.6879,"ARG_OF_PERICENTER":132.9079,"MEAN_ANOMALY":227.2767,"EPHEMERIS_TYPE":0,"NORAD_CAT_ID":52184,"ELEMENT_SET_NO":999,"REV_AT_EPOCH":10927,"BSTAR":0.00020598,"MEAN_MOTION_DOT":0.00009086,"MEAN_MOTION_DDOT":0},{"OBJECT_NAME":"NUSAT-33 (ALBANIA-2)","OBJECT_ID":"2023-001AQ","EPOCH":"2026-07-16T19:25:15.786336","CLASSIFICATION_TYPE":"U","MEAN_MOTION":15.28281591,"ECCENTRICITY":0.0004741,"INCLINATION":97.3053,"RA_OF_ASC_NODE":258.1486,"ARG_OF_PERICENTER":307.3965,"MEAN_ANOMALY":52.6842,"EPHEMERIS_TYPE":0,"NORAD_CAT_ID":55047,"ELEMENT_SET_NO":999,"REV_AT_EPOCH":19683,"BSTAR":0.0001824,"MEAN_MOTION_DOT":0.00004953,"MEAN_MOTION_DDOT":0},{"OBJECT_NAME":"NUSAT-35 (WILLIAMINA)","OBJECT_ID":"2023-001AR","EPOCH":"2026-07-16T19:34:27.275808","CLASSIFICATION_TYPE":"U","MEAN_MOTION":15.35849605,"ECCENTRICITY":0.0010264,"INCLINATION":97.1831,"RA_OF_ASC_NODE":249.8262,"ARG_OF_PERICENTER":4.334,"MEAN_ANOMALY":355.7992,"EPHEMERIS_TYPE":0,"NORAD_CAT_ID":55048,"ELEMENT_SET_NO":999,"REV_AT_EPOCH":19695,"BSTAR":0.00022278,"MEAN_MOTION_DOT":0.00007706,"MEAN_MOTION_DDOT":0},{"OBJECT_NAME":"NUSAT-39 (TIKVAH ALPER)","OBJECT_ID":"2023-054Z","EPOCH":"2026-07-16T20:33:41.834880","CLASSIFICATION_TYPE":"U","MEAN_MOTION":15.48072905,"ECCENTRICITY":0.0001648,"INCLINATION":97.3089,"RA_OF_ASC_NODE":107.9102,"ARG_OF_PERICENTER":311.4447,"MEAN_ANOMALY":48.6662,"EPHEMERIS_TYPE":0,"NORAD_CAT_ID":56201,"ELEMENT_SET_NO":999,"REV_AT_EPOCH":18304,"BSTAR":0.00032117,"MEAN_MOTION_DOT":0.00016748,"MEAN_MOTION_DDOT":0},{"OBJECT_NAME":"NUSAT-38 (MARIA AGNESI)","OBJECT_ID":"2023-054AA","EPOCH":"2026-07-16T20:21:19.411776","CLASSIFICATION_TYPE":"U","MEAN_MOTION":15.51265846,"ECCENTRICITY":0.0008546,"INCLINATION":97.3031,"RA_OF_ASC_NODE":108.6436,"ARG_OF_PERICENTER":320.4097,"MEAN_ANOMALY":39.653,"EPHEMERIS_TYPE":0,"NORAD_CAT_ID":56202,"ELEMENT_SET_NO":999,"REV_AT_EPOCH":18310,"BSTAR":0.00035052,"MEAN_MOTION_DOT":0.00020499,"MEAN_MOTION_DDOT":0},{"OBJECT_NAME":"NUSAT-37 (JOAN CLARKE)","OBJECT_ID":"2023-054AB","EPOCH":"2026-07-16T19:59:46.541184","CLASSIFICATION_TYPE":"U","MEAN_MOTION":15.5971396,"ECCENTRICITY":0.0008053,"INCLINATION":97.2599,"RA_OF_ASC_NODE":105.519,"ARG_OF_PERICENTER":139.2582,"MEAN_ANOMALY":220.9278,"EPHEMERIS_TYPE":0,"NORAD_CAT_ID":56203,"ELEMENT_SET_NO":999,"REV_AT_EPOCH":18326,"BSTAR":0.00039057,"MEAN_MOTION_DOT":0.00031212,"MEAN_MOTION_DDOT":0},{"OBJECT_NAME":"NUSAT-40 (C SHOEMAKER)","OBJECT_ID":"2023-084M","EPOCH":"2026-07-16T20:49:26.741568","CLASSIFICATION_TYPE":"U","MEAN_MOTION":15.82778044,"ECCENTRICITY":0.0003943,"INCLINATION":97.4867,"RA_OF_ASC_NODE":346.883,"ARG_OF_PERICENTER":183.4012,"MEAN_ANOMALY":176.7231,"EPHEMERIS_TYPE":0,"NORAD_CAT_ID":56943,"ELEMENT_SET_NO":999,"REV_AT_EPOCH":17349,"BSTAR":0.00050839,"MEAN_MOTION_DOT":0.00107824,"MEAN_MOTION_DDOT":0},{"OBJECT_NAME":"NUSAT-41 (C PAYNE-G)","OBJECT_ID":"2023-084N","EPOCH":"2026-07-16T19:36:53.880192","CLASSIFICATION_TYPE":"U","MEAN_MOTION":15.30173362,"ECCENTRICITY":0.0006597,"INCLINATION":97.5557,"RA_OF_ASC_NODE":335.0126,"ARG_OF_PERICENTER":204.8032,"MEAN_ANOMALY":155.2892,"EPHEMERIS_TYPE":0,"NORAD_CAT_ID":56944,"ELEMENT_SET_NO":999,"REV_AT_EPOCH":17231,"BSTAR":0.00020862,"MEAN_MOTION_DOT":0.00006014,"MEAN_MOTION_DDOT":0},{"OBJECT_NAME":"NUSAT-42 (M WONENBURGER)","OBJECT_ID":"2023-084AL","EPOCH":"2026-07-16T20:59:21.401664","CLASSIFICATION_TYPE":"U","MEAN_MOTION":15.46553992,"ECCENTRICITY":0.0006806,"INCLINATION":97.5755,"RA_OF_ASC_NODE":343.267,"ARG_OF_PERICENTER":140.9472,"MEAN_ANOMALY":219.227,"EPHEMERIS_TYPE":0,"NORAD_CAT_ID":56966,"ELEMENT_SET_NO":999,"REV_AT_EPOCH":17266,"BSTAR":0.00027478,"MEAN_MOTION_DOT":0.00013583,"MEAN_MOTION_DDOT":0},{"OBJECT_NAME":"NUSAT-44 (MARIA MITCHELL)","OBJECT_ID":"2024-043AA","EPOCH":"2026-07-16T20:07:54.477408","CLASSIFICATION_TYPE":"U","MEAN_MOTION":15.29869401,"ECCENTRICITY":0.0006529,"INCLINATION":97.5489,"RA_OF_ASC_NODE":338.5557,"ARG_OF_PERICENTER":126.9361,"MEAN_ANOMALY":233.2478,"EPHEMERIS_TYPE":0,"NORAD_CAT_ID":59122,"ELEMENT_SET_NO":999,"REV_AT_EPOCH":13180,"BSTAR":0.00020145,"MEAN_MOTION_DOT":0.00005751,"MEAN_MOTION_DDOT":0},{"OBJECT_NAME":"NUSAT-50 (NANCY ROMAN)","OBJECT_ID":"2024-149AB","EPOCH":"2026-07-16T12:45:40.632192","CLASSIFICATION_TYPE":"U","MEAN_MOTION":15.30332973,"ECCENTRICITY":0.0004857,"INCLINATION":97.3782,"RA_OF_ASC_NODE":278.5911,"ARG_OF_PERICENTER":97.983,"MEAN_ANOMALY":262.1962,"EPHEMERIS_TYPE":0,"NORAD_CAT_ID":60493,"ELEMENT_SET_NO":999,"REV_AT_EPOCH":10661,"BSTAR":0.00017619,"MEAN_MOTION_DOT":0.00005094,"MEAN_MOTION_DDOT":0},{"OBJECT_NAME":"NUSAT-48 (HENRIETTA LEAVITT)","OBJECT_ID":"2024-149AG","EPOCH":"2026-07-16T15:38:14.275104","CLASSIFICATION_TYPE":"U","MEAN_MOTION":15.30289562,"ECCENTRICITY":0.0004917,"INCLINATION":97.3915,"RA_OF_ASC_NODE":279.0049,"ARG_OF_PERICENTER":154.2394,"MEAN_ANOMALY":205.9092,"EPHEMERIS_TYPE":0,"NORAD_CAT_ID":60498,"ELEMENT_SET_NO":999,"REV_AT_EPOCH":10664,"BSTAR":0.00017563,"MEAN_MOTION_DOT":0.0000507,"MEAN_MOTION_DDOT":0},{"OBJECT_NAME":"NUSAT-49 (KLARA DAN VON NEUMANN)","OBJECT_ID":"2024-149AJ","EPOCH":"2026-07-16T11:56:39.081120","CLASSIFICATION_TYPE":"U","MEAN_MOTION":15.29795755,"ECCENTRICITY":0.0002849,"INCLINATION":97.3782,"RA_OF_ASC_NODE":278.5888,"ARG_OF_PERICENTER":156.1136,"MEAN_ANOMALY":204.0238,"EPHEMERIS_TYPE":0,"NORAD_CAT_ID":60500,"ELEMENT_SET_NO":999,"REV_AT_EPOCH":10661,"BSTAR":0.00008661,"MEAN_MOTION_DOT":0.00002423,"MEAN_MOTION_DDOT":0},{"OBJECT_NAME":"NUSAT-45 (UZMASAT-1)","OBJECT_ID":"2025-009AH","EPOCH":"2026-07-16T14:48:35.406144","CLASSIFICATION_TYPE":"U","MEAN_MOTION":15.29821579,"ECCENTRICITY":0.000184,"INCLINATION":97.3576,"RA_OF_ASC_NODE":278.5521,"ARG_OF_PERICENTER":172.8146,"MEAN_ANOMALY":187.3121,"EPHEMERIS_TYPE":0,"NORAD_CAT_ID":62640,"ELEMENT_SET_NO":999,"REV_AT_EPOCH":8342,"BSTAR":0.00016633,"MEAN_MOTION_DOT":0.00004728,"MEAN_MOTION_DDOT":0},{"OBJECT_NAME":"NUSAT-52","OBJECT_ID":"2025-276AC","EPOCH":"2026-07-16T10:40:26.082912","CLASSIFICATION_TYPE":"U","MEAN_MOTION":15.20043584,"ECCENTRICITY":0.0001624,"INCLINATION":97.4198,"RA_OF_ASC_NODE":270.51,"ARG_OF_PERICENTER":270.1215,"MEAN_ANOMALY":89.9834,"EPHEMERIS_TYPE":0,"NORAD_CAT_ID":66692,"ELEMENT_SET_NO":999,"REV_AT_EPOCH":3486,"BSTAR":0.0001199,"MEAN_MOTION_DOT":0.00002517,"MEAN_MOTION_DDOT":0},{"OBJECT_NAME":"NUSAT-51 (YVONNE BRILL)","OBJECT_ID":"2025-276CC","EPOCH":"2026-07-16T15:25:47.011008","CLASSIFICATION_TYPE":"U","MEAN_MOTION":15.2057573,"ECCENTRICITY":0.0001835,"INCLINATION":97.4202,"RA_OF_ASC_NODE":270.8493,"ARG_OF_PERICENTER":228.157,"MEAN_ANOMALY":131.9509,"EPHEMERIS_TYPE":0,"NORAD_CAT_ID":66740,"ELEMENT_SET_NO":999,"REV_AT_EPOCH":3490,"BSTAR":0.00014526,"MEAN_MOTION_DOT":0.00003112,"MEAN_MOTION_DDOT":0}]}
