NUSAT-26 (M SOMERVILLE) 
1 52184U 22033AD  26197.81854883  .00009086  00000+0  20598-3 0  9999
2 52184  97.2338 276.6879 0007110 132.9079 227.2767 15.43281411109271
NUSAT-33 (ALBANIA-2)    
1 55047U 23001AQ  26197.80921049  .00004953  00000+0  18240-3 0  9993
2 55047  97.3053 258.1486 0004741 307.3965  52.6842 15.28281591196839
NUSAT-35 (WILLIAMINA)   
1 55048U 23001AR  26197.81559347  .00007706  00000+0  22278-3 0  9998
2 55048  97.1831 249.8262 0010264   4.3340 355.7992 15.35849605196959
NUSAT-39 (TIKVAH ALPER) 
1 56201U 23054Z   26197.85673420  .00016748  00000+0  32117-3 0  9990
2 56201  97.3089 107.9102 0001648 311.4447  48.6662 15.48072905183044
NUSAT-38 (MARIA AGNESI) 
1 56202U 23054AA  26197.84814134  .00020499  00000+0  35052-3 0  9998
2 56202  97.3031 108.6436 0008546 320.4097  39.6530 15.51265846183108
NUSAT-37 (JOAN CLARKE)  
1 56203U 23054AB  26197.83317756  .00031212  00000+0  39057-3 0  9990
2 56203  97.2599 105.5190 0008053 139.2582 220.9278 15.59713960183262
NUSAT-40 (C SHOEMAKER)  
1 56943U 23084M   26197.86767062  .00107824  00000+0  50839-3 0  9990
2 56943  97.4867 346.8830 0003943 183.4012 176.7231 15.82778044173497
NUSAT-41 (C PAYNE-G)    
1 56944U 23084N   26197.81729028  .00006014  00000+0  20862-3 0  9998
2 56944  97.5557 335.0126 0006597 204.8032 155.2892 15.30173362172311
NUSAT-42 (M WONENBURGER)
1 56966U 23084AL  26197.87455326  .00013583  00000+0  27478-3 0  9994
2 56966  97.5755 343.2670 0006806 140.9472 219.2270 15.46553992172668
NUSAT-44 (MARIA MITCHE*)
1 59122U 24043AA  26197.83882497  .00005751  00000+0  20145-3 0  9998
2 59122  97.5489 338.5557 0006529 126.9361 233.2478 15.29869401131806
NUSAT-50 (NANCY ROMAN)  
1 60493U 24149AB  26197.53172028  .00005094  00000+0  17619-3 0  9999
2 60493  97.3782 278.5911 0004857  97.9830 262.1962 15.30332973106611
NUSAT-48 (HENRIETTA LE*)
1 60498U 24149AG  26197.65155411  .00005070  00000+0  17563-3 0  9996
2 60498  97.3915 279.0049 0004917 154.2394 205.9092 15.30289562106648
NUSAT-49 (KLARA DAN VO*)
1 60500U 24149AJ  26197.49767455  .00002423  00000+0  86610-4 0  9998
2 60500  97.3782 278.5888 0002849 156.1136 204.0238 15.29795755106619
NUSAT-45 (UZMASAT-1)    
1 62640U 25009AH  26197.61707646  .00004728  00000+0  16633-3 0  9998
2 62640  97.3576 278.5521 0001840 172.8146 187.3121 15.29821579 83428
NUSAT-52                
1 66692U 25276AC  26197.44474633  .00002517  00000+0  11990-3 0  9998
2 66692  97.4198 270.5100 0001624 270.1215  89.9834 15.20043584 34869
NUSAT-51 (YVONNE BRILL) 
1 66740U 25276CC  26197.64290522  .00003112  00000+0  14526-3 0  9997
2 66740  97.4202 270.8493 0001835 228.1570 131.9509 15.20575730 34903
